[{"OBJECT_NAME":"ONEWEB-0501","OBJECT_ID":"2022-138G","EPOCH":"2025-10-08T05:26:49.999776","MEAN_MOTION":13.19727281,"ECCENTRICITY":0.00015862,"INCLINATION":87.9285,"RA_OF_ASC_NODE":355.074,"ARG_OF_PERICENTER":110.8805,"MEAN_ANOMALY":249.2498,"EPHEMERIS_TYPE":0,"CLASSIFICATION_TYPE":"U","NORAD_CAT_ID":54119,"ELEMENT_SET_NO":999,"REV_AT_EPOCH":14357,"BSTAR":0.00036105196,"MEAN_MOTION_DOT":1.57e-6,"MEAN_MOTION_DDOT":0},{"OBJECT_NAME":"ONEWEB-0502","OBJECT_ID":"2022-138H","EPOCH":"2025-10-08T05:06:20.946816","MEAN_MOTION":13.19723712,"ECCENTRICITY":0.00015998,"INCLINATION":87.9285,"RA_OF_ASC_NODE":355.0592,"ARG_OF_PERICENTER":103.5643,"MEAN_ANOMALY":256.5668,"EPHEMERIS_TYPE":0,"CLASSIFICATION_TYPE":"U","NORAD_CAT_ID":54120,"ELEMENT_SET_NO":999,"REV_AT_EPOCH":14359,"BSTAR":0.00016924812,"MEAN_MOTION_DOT":8.1e-7,"MEAN_MOTION_DDOT":0},{"OBJECT_NAME":"ONEWEB-0503","OBJECT_ID":"2022-138J","EPOCH":"2025-10-08T04:50:25.516608","MEAN_MOTION":13.19727489,"ECCENTRICITY":0.00016978,"INCLINATION":87.9283,"RA_OF_ASC_NODE":355.0655,"ARG_OF_PERICENTER":91.8067,"MEAN_ANOMALY":268.3261,"EPHEMERIS_TYPE":0,"CLASSIFICATION_TYPE":"U","NORAD_CAT_ID":54121,"ELEMENT_SET_NO":999,"REV_AT_EPOCH":14358,"BSTAR":0.00014295854,"MEAN_MOTION_DOT":7.0e-7,"MEAN_MOTION_DDOT":0},{"OBJECT_NAME":"ONEWEB-0504","OBJECT_ID":"2022-138K","EPOCH":"2025-10-08T06:21:23.992128","MEAN_MOTION":13.19724576,"ECCENTRICITY":0.00015644,"INCLINATION":87.9283,"RA_OF_ASC_NODE":355.0703,"ARG_OF_PERICENTER":102.0972,"MEAN_ANOMALY":258.0336,"EPHEMERIS_TYPE":0,"CLASSIFICATION_TYPE":"U","NORAD_CAT_ID":54122,"ELEMENT_SET_NO":999,"REV_AT_EPOCH":14360,"BSTAR":-0.0007080328,"MEAN_MOTION_DOT":-2.71e-6,"MEAN_MOTION_DDOT":0},{"OBJECT_NAME":"ONEWEB-0505","OBJECT_ID":"2022-138L","EPOCH":"2025-10-08T06:16:52.751424","MEAN_MOTION":13.19726397,"ECCENTRICITY":0.00014185,"INCLINATION":87.9286,"RA_OF_ASC_NODE":355.059,"ARG_OF_PERICENTER":113.2277,"MEAN_ANOMALY":246.9005,"EPHEMERIS_TYPE":0,"CLASSIFICATION_TYPE":"U","NORAD_CAT_ID":54123,"ELEMENT_SET_NO":999,"REV_AT_EPOCH":14358,"BSTAR":7.7857375e-5,"MEAN_MOTION_DOT":4.4e-7,"MEAN_MOTION_DDOT":0},{"OBJECT_NAME":"ONEWEB-0506","OBJECT_ID":"2022-138M","EPOCH":"2025-10-08T05:40:27.837984","MEAN_MOTION":13.19723339,"ECCENTRICITY":0.00017177,"INCLINATION":87.9282,"RA_OF_ASC_NODE":355.0611,"ARG_OF_PERICENTER":103.0231,"MEAN_ANOMALY":257.1093,"EPHEMERIS_TYPE":0,"CLASSIFICATION_TYPE":"U","NORAD_CAT_ID":54124,"ELEMENT_SET_NO":999,"REV_AT_EPOCH":14357,"BSTAR":0.00020867033,"MEAN_MOTION_DOT":9.6e-7,"MEAN_MOTION_DDOT":0},{"OBJECT_NAME":"ONEWEB-0507","OBJECT_ID":"2022-138N","EPOCH":"2025-10-08T06:10:01.659360","MEAN_MOTION":13.19727021,"ECCENTRICITY":0.00017219,"INCLINATION":87.9266,"RA_OF_ASC_NODE":355.1038,"ARG_OF_PERICENTER":106.2138,"MEAN_ANOMALY":253.9185,"EPHEMERIS_TYPE":0,"CLASSIFICATION_TYPE":"U","NORAD_CAT_ID":54125,"ELEMENT_SET_NO":999,"REV_AT_EPOCH":14362,"BSTAR":0.00010971776,"MEAN_MOTION_DOT":5.7e-7,"MEAN_MOTION_DDOT":0},{"OBJECT_NAME":"ONEWEB-0508","OBJECT_ID":"2022-138P","EPOCH":"2025-10-08T04:16:18.729120","MEAN_MOTION":13.19723724,"ECCENTRICITY":0.00017005,"INCLINATION":87.9274,"RA_OF_ASC_NODE":355.1064,"ARG_OF_PERICENTER":111.473,"MEAN_ANOMALY":248.6584,"EPHEMERIS_TYPE":0,"CLASSIFICATION_TYPE":"U","NORAD_CAT_ID":54126,"ELEMENT_SET_NO":999,"REV_AT_EPOCH":14359,"BSTAR":8.1299057e-5,"MEAN_MOTION_DOT":4.5e-7,"MEAN_MOTION_DDOT":0},{"OBJECT_NAME":"ONEWEB-0509","OBJECT_ID":"2022-138Q","EPOCH":"2025-10-08T05:29:06.086688","MEAN_MOTION":13.19728041,"ECCENTRICITY":0.00017705,"INCLINATION":87.9284,"RA_OF_ASC_NODE":355.0611,"ARG_OF_PERICENTER":103.3651,"MEAN_ANOMALY":256.7679,"EPHEMERIS_TYPE":0,"CLASSIFICATION_TYPE":"U","NORAD_CAT_ID":54127,"ELEMENT_SET_NO":999,"REV_AT_EPOCH":14357,"BSTAR":0.00016113238,"MEAN_MOTION_DOT":7.7e-7,"MEAN_MOTION_DDOT":0},{"OBJECT_NAME":"ONEWEB-0510","OBJECT_ID":"2022-138R","EPOCH":"2025-10-08T03:56:44.911680","MEAN_MOTION":13.20773056,"ECCENTRICITY":0.00023385,"INCLINATION":87.9228,"RA_OF_ASC_NODE":324.6968,"ARG_OF_PERICENTER":87.1712,"MEAN_ANOMALY":272.9689,"EPHEMERIS_TYPE":0,"CLASSIFICATION_TYPE":"U","NORAD_CAT_ID":54128,"ELEMENT_SET_NO":999,"REV_AT_EPOCH":14601,"BSTAR":0.00030966438,"MEAN_MOTION_DOT":1.39e-6,"MEAN_MOTION_DDOT":0},{"OBJECT_NAME":"ONEWEB-0511","OBJECT_ID":"2022-138S","EPOCH":"2025-10-08T05:24:32.818176","MEAN_MOTION":13.19724775,"ECCENTRICITY":0.00016665,"INCLINATION":87.9282,"RA_OF_ASC_NODE":355.0661,"ARG_OF_PERICENTER":92.9619,"MEAN_ANOMALY":267.1704,"EPHEMERIS_TYPE":0,"CLASSIFICATION_TYPE":"U","NORAD_CAT_ID":54129,"ELEMENT_SET_NO":999,"REV_AT_EPOCH":14360,"BSTAR":0.00034651271,"MEAN_MOTION_DOT":1.52e-6,"MEAN_MOTION_DDOT":0},{"OBJECT_NAME":"ONEWEB-0512","OBJECT_ID":"2022-138T","EPOCH":"2025-10-08T05:13:10.128576","MEAN_MOTION":13.19726153,"ECCENTRICITY":0.00015169,"INCLINATION":87.9264,"RA_OF_ASC_NODE":355.1027,"ARG_OF_PERICENTER":106.896,"MEAN_ANOMALY":253.234,"EPHEMERIS_TYPE":0,"CLASSIFICATION_TYPE":"U","NORAD_CAT_ID":54130,"ELEMENT_SET_NO":999,"REV_AT_EPOCH":14357,"BSTAR":-0.0011140871,"MEAN_MOTION_DOT":-4.33e-6,"MEAN_MOTION_DDOT":0},{"OBJECT_NAME":"ONEWEB-0513","OBJECT_ID":"2022-138U","EPOCH":"2025-10-08T06:03:25.746048","MEAN_MOTION":13.20316441,"ECCENTRICITY":0.00012265,"INCLINATION":87.9287,"RA_OF_ASC_NODE":355.0565,"ARG_OF_PERICENTER":96.9636,"MEAN_ANOMALY":263.1636,"EPHEMERIS_TYPE":0,"CLASSIFICATION_TYPE":"U","NORAD_CAT_ID":54131,"ELEMENT_SET_NO":999,"REV_AT_EPOCH":14347,"BSTAR":7.0834525e-5,"MEAN_MOTION_DOT":4.2e-7,"MEAN_MOTION_DDOT":0},{"OBJECT_NAME":"ONEWEB-0514","OBJECT_ID":"2022-138V","EPOCH":"2025-10-08T05:35:56.097024","MEAN_MOTION":13.19727215,"ECCENTRICITY":0.00019186,"INCLINATION":87.9279,"RA_OF_ASC_NODE":355.078,"ARG_OF_PERICENTER":96.4973,"MEAN_ANOMALY":263.6379,"EPHEMERIS_TYPE":0,"CLASSIFICATION_TYPE":"U","NORAD_CAT_ID":54132,"ELEMENT_SET_NO":999,"REV_AT_EPOCH":14359,"BSTAR":0.00018682243,"MEAN_MOTION_DOT":8.8e-7,"MEAN_MOTION_DDOT":0},{"OBJECT_NAME":"ONEWEB-0515","OBJECT_ID":"2022-138W","EPOCH":"2025-10-08T03:38:32.647200","MEAN_MOTION":13.20769439,"ECCENTRICITY":0.0002802,"INCLINATION":87.9237,"RA_OF_ASC_NODE":324.6805,"ARG_OF_PERICENTER":97.8944,"MEAN_ANOMALY":262.2508,"EPHEMERIS_TYPE":0,"CLASSIFICATION_TYPE":"U","NORAD_CAT_ID":54133,"ELEMENT_SET_NO":999,"REV_AT_EPOCH":14603,"BSTAR":-0.00010446626,"MEAN_MOTION_DOT":-2.9e-7,"MEAN_MOTION_DDOT":0},{"OBJECT_NAME":"ONEWEB-0516","OBJECT_ID":"2022-138X","EPOCH":"2025-10-08T06:48:43.146144","MEAN_MOTION":13.19726886,"ECCENTRICITY":0.00018518,"INCLINATION":87.9266,"RA_OF_ASC_NODE":355.0949,"ARG_OF_PERICENTER":104.9159,"MEAN_ANOMALY":255.2179,"EPHEMERIS_TYPE":0,"CLASSIFICATION_TYPE":"U","NORAD_CAT_ID":54134,"ELEMENT_SET_NO":999,"REV_AT_EPOCH":14360,"BSTAR":-2.316522e-6,"MEAN_MOTION_DOT":1.2e-7,"MEAN_MOTION_DDOT":0}]
