ONEWEB-0501             
1 54119U 22138G   25281.22696759  .00000157  00000+0  36105-3 0  9990
2 54119  87.9285 355.0740 0001586 110.8805 249.2498 13.19727281143577
ONEWEB-0502             
1 54120U 22138H   25281.21274244  .00000081  00000+0  16925-3 0  9996
2 54120  87.9285 355.0592 0001599 103.5643 256.5668 13.19723712143594
ONEWEB-0503             
1 54121U 22138J   25281.20168422  .00000070  00000+0  14296-3 0  9993
2 54121  87.9283 355.0655 0001697  91.8067 268.3261 13.19727489143585
ONEWEB-0504             
1 54122U 22138K   25281.26486102 -.00000271  00000+0 -70803-3 0  9999
2 54122  87.9283 355.0703 0001564 102.0972 258.0336 13.19724576143609
ONEWEB-0505             
1 54123U 22138L   25281.26172166  .00000044  00000+0  77857-4 0  9995
2 54123  87.9286 355.0590 0001418 113.2277 246.9005 13.19726397143586
ONEWEB-0506             
1 54124U 22138M   25281.23643331  .00000096  00000+0  20867-3 0  9995
2 54124  87.9282 355.0611 0001717 103.0231 257.1093 13.19723339143579
ONEWEB-0507             
1 54125U 22138N   25281.25696365  .00000057  00000+0  10972-3 0  9996
2 54125  87.9266 355.1038 0001721 106.2138 253.9185 13.19727021143626
ONEWEB-0508             
1 54126U 22138P   25281.17799455  .00000045  00000+0  81299-4 0  9990
2 54126  87.9274 355.1064 0001700 111.4730 248.6584 13.19723724143594
ONEWEB-0509             
1 54127U 22138Q   25281.22854267  .00000077  00000+0  16113-3 0  9997
2 54127  87.9284 355.0611 0001770 103.3651 256.7679 13.19728041143572
ONEWEB-0510             
1 54128U 22138R   25281.16440870  .00000139  00000+0  30966-3 0  9993
2 54128  87.9228 324.6968 0002338  87.1712 272.9689 13.20773056146017
ONEWEB-0511             
1 54129U 22138S   25281.22537984  .00000152  00000+0  34651-3 0  9994
2 54129  87.9282 355.0661 0001666  92.9619 267.1704 13.19724775143607
ONEWEB-0512             
1 54130U 22138T   25281.21747834 -.00000433  00000+0 -11141-2 0  9994
2 54130  87.9264 355.1027 0001516 106.8960 253.2340 13.19726153143574
ONEWEB-0513             
1 54131U 22138U   25281.25238132  .00000042  00000+0  70835-4 0  9996
2 54131  87.9287 355.0565 0001226  96.9636 263.1636 13.20316441143477
ONEWEB-0514             
1 54132U 22138V   25281.23328816  .00000088  00000+0  18682-3 0  9995
2 54132  87.9279 355.0780 0001918  96.4973 263.6379 13.19727215143590
ONEWEB-0515             
1 54133U 22138W   25281.15176675 -.00000029  00000+0 -10447-3 0  9999
2 54133  87.9237 324.6805 0002802  97.8944 262.2508 13.20769439146038
ONEWEB-0516             
1 54134U 22138X   25281.28383271  .00000012  00000+0 -23165-5 0  9990
2 54134  87.9266 355.0949 0001851 104.9159 255.2179 13.19726886143602
